GSAT0225 (GALILEO 29)   
1 59598U 24079A   26189.24752330 -.00000009  00000+0  00000+0 0  9998
2 59598  55.1311 100.4922 0000777 311.6524 239.2330  1.70473736 13672
GSAT0227 (GALILEO 30)   
1 59600U 24079C   26187.94680255 -.00000003  00000+0  00000+0 0  9997
2 59600  55.1260 100.5264 0002634  63.1115 296.9336  1.70473885 13703
GSAT0232 (GALILEO 32)   
1 61182U 24167A   26191.13649870  .00000090  00000+0  00000+0 0  9992
2 61182  55.1805 220.6842 0006470 230.0654 143.1873  1.70473966 11276
BEIDOU-3 M25            
1 61186U 24168B   26190.47823550 -.00000067  00000+0  00000+0 0  9997
2 61186  54.4524 301.4683 0003287 292.5034  70.4681  1.86229902 12208
BEIDOU-3 M27            
1 61187U 24168C   26191.39812311 -.00000067  00000+0  00000+0 0  9993
2 61187  54.4468 301.4189 0000997  49.7834 344.9576  1.86229914  9696
NAVSTAR 83 (USA 440)    
1 62339U 24242A   26191.27208483 -.00000082  00000+0  00000+0 0  9999
2 62339  54.8387 333.2464 0017772   3.9598 354.1894  2.00571820 11712
QZS-6 (MICHIBIKI-6)     
1 62876U 25023A   26191.74419676 -.00000223  00000+0  00000+0 0  9990
2 62876   0.0220 317.9956 0001808 172.2452 156.8180  1.00268268  5181
COSMOS 2584 [GLONASS-K2]
1 63130U 25042A   26189.25686520 -.00000024  00000+0  00000+0 0  9991
2 63130  65.0959  72.0857 0005748 218.1439 141.8762  2.13103813 10495
NAVSTAR 84 (USA 545)    
1 64202U 25116A   26191.01629376 -.00000054  00000+0  00000+0 0  9990
2 64202  55.2518  30.2129 0008288 339.6423  16.9014  2.00574022  8321
COSMOS 2596 [GLONASS-K1]
1 65590U 25206B   26190.50906699 -.00000059  00000+0  00000+0 0  9995
2 65590  64.6203 314.2090 0011163 308.0791  48.6851  2.13100694  6382
GSAT0233 (GALILEO 33)   
1 67160U 25302A   26189.73406278 -.00000012  00000+0  00000+0 0  9997
2 67160  54.3473 101.5178 0000858 172.7787 247.6086  1.70473891  3490
GSAT0234 (GALILEO 34)   
1 67162U 25302C   26191.39554255 -.00000024  00000+0  00000+0 0  9996
2 67162  54.3501 101.4692 0002180 319.2109 220.9694  1.70473808  3576
NAVSTAR 85 (USA 581)    
1 67588U 26017A   26191.13115220 -.00000037  00000+0  00000+0 0  9993
2 67588  55.1027  87.8344 0021569 259.7592 100.0304  2.00570566432077
NAVSTAR 86 (USA 585)    
1 68791U 26087A   26191.44189421  .00000113  00000+0  00000+0 0  9999
2 68791  54.9621 206.8682 0020521 106.5172 323.3161  2.00572139  1306
